CCSDS_OMM_VERS = 2.0
CREATION_DATE  = 
ORIGINATOR     = 

OBJECT_NAME    = STARLINK-35548
OBJECT_ID      = 2025-243AC
CENTER_NAME    = EARTH
REF_FRAME      = TEME
TIME_SYSTEM    = UTC
MEAN_ELEMENT_THEORY = SGP/SGP4

EPOCH          = 2025-11-16T12:00:02.000160
MEAN_MOTION    = 15.65188951
ECCENTRICITY   = .0000927
INCLINATION    = 53.1598
RA_OF_ASC_NODE = 52.4499
ARG_OF_PERICENTER = 69.4332
MEAN_ANOMALY   = 291.4207

EPHEMERIS_TYPE = 0
CLASSIFICATION_TYPE = U
NORAD_CAT_ID   = 66203
ELEMENT_SET_NO = 999
REV_AT_EPOCH   = 442
BSTAR          = -.22888E-1
MEAN_MOTION_DOT = -.2026432E-1
MEAN_MOTION_DDOT = 0

CCSDS_OMM_VERS = 2.0
CREATION_DATE  = 
ORIGINATOR     = 

OBJECT_NAME    = STARLINK-35490
OBJECT_ID      = 2025-243AD
CENTER_NAME    = EARTH
REF_FRAME      = TEME
TIME_SYSTEM    = UTC
MEAN_ELEMENT_THEORY = SGP/SGP4

EPOCH          = 2025-11-16T12:00:02.000160
MEAN_MOTION    = 15.65188957
ECCENTRICITY   = .000095
INCLINATION    = 53.1595
RA_OF_ASC_NODE = 52.4576
ARG_OF_PERICENTER = 66.3086
MEAN_ANOMALY   = 290.7107

EPHEMERIS_TYPE = 0
CLASSIFICATION_TYPE = U
NORAD_CAT_ID   = 66204
ELEMENT_SET_NO = 999
REV_AT_EPOCH   = 431
BSTAR          = -.22882E-1
MEAN_MOTION_DOT = -.2025981E-1
MEAN_MOTION_DDOT = 0

CCSDS_OMM_VERS = 2.0
CREATION_DATE  = 
ORIGINATOR     = 

OBJECT_NAME    = STARLINK-35748
OBJECT_ID      = 2025-244A
CENTER_NAME    = EARTH
REF_FRAME      = TEME
TIME_SYSTEM    = UTC
MEAN_ELEMENT_THEORY = SGP/SGP4

EPOCH          = 2025-11-16T12:00:02.000160
MEAN_MOTION    = 15.49217458
ECCENTRICITY   = .0000949
INCLINATION    = 53.1598
RA_OF_ASC_NODE = 39.9742
ARG_OF_PERICENTER = 39.8280
MEAN_ANOMALY   = 154.2743

EPHEMERIS_TYPE = 0
CLASSIFICATION_TYPE = U
NORAD_CAT_ID   = 66206
ELEMENT_SET_NO = 999
REV_AT_EPOCH   = 404
BSTAR          = .17366E-2
MEAN_MOTION_DOT = .97029E-3
MEAN_MOTION_DDOT = 0

CCSDS_OMM_VERS = 2.0
CREATION_DATE  = 
ORIGINATOR     = 

OBJECT_NAME    = STARLINK-35747
OBJECT_ID      = 2025-244B
CENTER_NAME    = EARTH
REF_FRAME      = TEME
TIME_SYSTEM    = UTC
MEAN_ELEMENT_THEORY = SGP/SGP4

EPOCH          = 2025-11-16T11:37:44.338944
MEAN_MOTION    = 15.74240965
ECCENTRICITY   = .0001146
INCLINATION    = 53.1602
RA_OF_ASC_NODE = 39.5351
ARG_OF_PERICENTER = 73.6532
MEAN_ANOMALY   = 286.4614

EPHEMERIS_TYPE = 0
CLASSIFICATION_TYPE = U
NORAD_CAT_ID   = 66207
ELEMENT_SET_NO = 999
REV_AT_EPOCH   = 427
BSTAR          = .10989E-2
MEAN_MOTION_DOT = .163839E-2
MEAN_MOTION_DDOT = 0

CCSDS_OMM_VERS = 2.0
CREATION_DATE  = 
ORIGINATOR     = 

OBJECT_NAME    = STARLINK-35751
OBJECT_ID      = 2025-244C
CENTER_NAME    = EARTH
REF_FRAME      = TEME
TIME_SYSTEM    = UTC
MEAN_ELEMENT_THEORY = SGP/SGP4

EPOCH          = 2025-11-16T12:00:02.000160
MEAN_MOTION    = 15.49216549
ECCENTRICITY   = .0000985
INCLINATION    = 53.1597
RA_OF_ASC_NODE = 39.9661
ARG_OF_PERICENTER = 49.4945
MEAN_ANOMALY   = 148.4409

EPHEMERIS_TYPE = 0
CLASSIFICATION_TYPE = U
NORAD_CAT_ID   = 66208
ELEMENT_SET_NO = 999
REV_AT_EPOCH   = 415
BSTAR          = .17458E-2
MEAN_MOTION_DOT = .97547E-3
MEAN_MOTION_DDOT = 0

CCSDS_OMM_VERS = 2.0
CREATION_DATE  = 
ORIGINATOR     = 

OBJECT_NAME    = STARLINK-35750
OBJECT_ID      = 2025-244D
CENTER_NAME    = EARTH
REF_FRAME      = TEME
TIME_SYSTEM    = UTC
MEAN_ELEMENT_THEORY = SGP/SGP4

EPOCH          = 2025-11-16T12:00:02.000160
MEAN_MOTION    = 15.49220834
ECCENTRICITY   = .0000914
INCLINATION    = 53.1600
RA_OF_ASC_NODE = 39.9573
ARG_OF_PERICENTER = 50.8777
MEAN_ANOMALY   = 150.8911

EPHEMERIS_TYPE = 0
CLASSIFICATION_TYPE = U
NORAD_CAT_ID   = 66209
ELEMENT_SET_NO = 999
REV_AT_EPOCH   = 412
BSTAR          = .14935E-2
MEAN_MOTION_DOT = .83246E-3
MEAN_MOTION_DDOT = 0

CCSDS_OMM_VERS = 2.0
CREATION_DATE  = 
ORIGINATOR     = 

OBJECT_NAME    = STARLINK-35740
OBJECT_ID      = 2025-244E
CENTER_NAME    = EARTH
REF_FRAME      = TEME
TIME_SYSTEM    = UTC
MEAN_ELEMENT_THEORY = SGP/SGP4

EPOCH          = 2025-11-16T12:00:02.000160
MEAN_MOTION    = 15.49214869
ECCENTRICITY   = .0000945
INCLINATION    = 53.1599
RA_OF_ASC_NODE = 39.9616
ARG_OF_PERICENTER = 45.7331
MEAN_ANOMALY   = 154.1209

EPHEMERIS_TYPE = 0
CLASSIFICATION_TYPE = U
NORAD_CAT_ID   = 66210
ELEMENT_SET_NO = 999
REV_AT_EPOCH   = 399
BSTAR          = .17056E-2
MEAN_MOTION_DOT = .95256E-3
MEAN_MOTION_DDOT = 0

CCSDS_OMM_VERS = 2.0
CREATION_DATE  = 
ORIGINATOR     = 

OBJECT_NAME    = STARLINK-35723
OBJECT_ID      = 2025-244F
CENTER_NAME    = EARTH
REF_FRAME      = TEME
TIME_SYSTEM    = UTC
MEAN_ELEMENT_THEORY = SGP/SGP4

EPOCH          = 2025-11-16T12:00:02.000160
MEAN_MOTION    = 15.49215186
ECCENTRICITY   = .0001028
INCLINATION    = 53.1599
RA_OF_ASC_NODE = 39.9531
ARG_OF_PERICENTER = 48.6138
MEAN_ANOMALY   = 155.0715

EPHEMERIS_TYPE = 0
CLASSIFICATION_TYPE = U
NORAD_CAT_ID   = 66211
ELEMENT_SET_NO = 999
REV_AT_EPOCH   = 404
BSTAR          = .17564E-2
MEAN_MOTION_DOT = .98146E-3
MEAN_MOTION_DDOT = 0

CCSDS_OMM_VERS = 2.0
CREATION_DATE  = 
ORIGINATOR     = 

OBJECT_NAME    = STARLINK-35710
OBJECT_ID      = 2025-244G
CENTER_NAME    = EARTH
REF_FRAME      = TEME
TIME_SYSTEM    = UTC
MEAN_ELEMENT_THEORY = SGP/SGP4

EPOCH          = 2025-11-16T12:00:02.000160
MEAN_MOTION    = 15.49338911
ECCENTRICITY   = .0001496
INCLINATION    = 53.1595
RA_OF_ASC_NODE = 39.9455
ARG_OF_PERICENTER = 60.8864
MEAN_ANOMALY   = 146.6048

EPHEMERIS_TYPE = 0
CLASSIFICATION_TYPE = U
NORAD_CAT_ID   = 66212
ELEMENT_SET_NO = 999
REV_AT_EPOCH   = 412
BSTAR          = -.17129E-2
MEAN_MOTION_DOT = -.94669E-3
MEAN_MOTION_DDOT = 0

CCSDS_OMM_VERS = 2.0
CREATION_DATE  = 
ORIGINATOR     = 

OBJECT_NAME    = STARLINK-34204
OBJECT_ID      = 2025-244H
CENTER_NAME    = EARTH
REF_FRAME      = TEME
TIME_SYSTEM    = UTC
MEAN_ELEMENT_THEORY = SGP/SGP4

EPOCH          = 2025-11-16T12:00:02.000160
MEAN_MOTION    = 15.49216760
ECCENTRICITY   = .0001017
INCLINATION    = 53.1600
RA_OF_ASC_NODE = 39.9495
ARG_OF_PERICENTER = 46.2401
MEAN_ANOMALY   = 159.3611

EPHEMERIS_TYPE = 0
CLASSIFICATION_TYPE = U
NORAD_CAT_ID   = 66213
ELEMENT_SET_NO = 999
REV_AT_EPOCH   = 431
BSTAR          = .16837E-2
MEAN_MOTION_DOT = .9402E-3
MEAN_MOTION_DDOT = 0

CCSDS_OMM_VERS = 2.0
CREATION_DATE  = 
ORIGINATOR     = 

OBJECT_NAME    = STARLINK-35714
OBJECT_ID      = 2025-244J
CENTER_NAME    = EARTH
REF_FRAME      = TEME
TIME_SYSTEM    = UTC
MEAN_ELEMENT_THEORY = SGP/SGP4

EPOCH          = 2025-11-16T12:00:02.000160
MEAN_MOTION    = 15.49335532
ECCENTRICITY   = .0001498
INCLINATION    = 53.1597
RA_OF_ASC_NODE = 39.9294
ARG_OF_PERICENTER = 59.2129
MEAN_ANOMALY   = 155.9461

EPHEMERIS_TYPE = 0
CLASSIFICATION_TYPE = U
NORAD_CAT_ID   = 66214
ELEMENT_SET_NO = 999
REV_AT_EPOCH   = 399
BSTAR          = -.16012E-2
MEAN_MOTION_DOT = -.88586E-3
MEAN_MOTION_DDOT = 0

CCSDS_OMM_VERS = 2.0
CREATION_DATE  = 
ORIGINATOR     = 

OBJECT_NAME    = STARLINK-35712
OBJECT_ID      = 2025-244K
CENTER_NAME    = EARTH
REF_FRAME      = TEME
TIME_SYSTEM    = UTC
MEAN_ELEMENT_THEORY = SGP/SGP4

EPOCH          = 2025-11-16T12:00:02.000160
MEAN_MOTION    = 15.49215261
ECCENTRICITY   = .0001
INCLINATION    = 53.1600
RA_OF_ASC_NODE = 39.9211
ARG_OF_PERICENTER = 46.2675
MEAN_ANOMALY   = 172.7519

EPHEMERIS_TYPE = 0
CLASSIFICATION_TYPE = U
NORAD_CAT_ID   = 66215
ELEMENT_SET_NO = 999
REV_AT_EPOCH   = 399
BSTAR          = .1513E-2
MEAN_MOTION_DOT = .8433E-3
MEAN_MOTION_DDOT = 0

