STARLINK-35548          
1 66203U 25243AC  25320.50002315 -.02026432  00000+0 -22888-1 0  9990
2 66203  53.1598  52.4499 0000927  69.4332 291.4207 15.65188951  4422
STARLINK-35490          
1 66204U 25243AD  25320.50002315 -.02025981  00000+0 -22882-1 0  9993
2 66204  53.1595  52.4576 0000950  66.3086 290.7107 15.65188957  4319
STARLINK-35748          
1 66206U 25244A   25320.50002315  .00097029  00000+0  17366-2 0  9996
2 66206  53.1598  39.9742 0000949  39.8280 154.2743 15.49217458  4049
STARLINK-35747          
1 66207U 25244B   25320.48454096  .00163839  00000+0  10989-2 0  9998
2 66207  53.1602  39.5351 0001146  73.6532 286.4614 15.74240965  4271
STARLINK-35751          
1 66208U 25244C   25320.50002315  .00097547  00000+0  17458-2 0  9995
2 66208  53.1597  39.9661 0000985  49.4945 148.4409 15.49216549  4151
STARLINK-35750          
1 66209U 25244D   25320.50002315  .00083246  00000+0  14935-2 0  9994
2 66209  53.1600  39.9573 0000914  50.8777 150.8911 15.49220834  4124
STARLINK-35740          
1 66210U 25244E   25320.50002315  .00095256  00000+0  17056-2 0  9997
2 66210  53.1599  39.9616 0000945  45.7331 154.1209 15.49214869  3996
STARLINK-35723          
1 66211U 25244F   25320.50002315  .00098146  00000+0  17564-2 0  9993
2 66211  53.1599  39.9531 0001028  48.6138 155.0715 15.49215186  4045
STARLINK-35710          
1 66212U 25244G   25320.50002315 -.00094669  00000+0 -17129-2 0  9999
2 66212  53.1595  39.9455 0001496  60.8864 146.6048 15.49338911  4124
STARLINK-34204          
1 66213U 25244H   25320.50002315  .00094020  00000+0  16837-2 0  9994
2 66213  53.1600  39.9495 0001017  46.2401 159.3611 15.49216760  4315
STARLINK-35714          
1 66214U 25244J   25320.50002315 -.00088586  00000+0 -16012-2 0  9992
2 66214  53.1597  39.9294 0001498  59.2129 155.9461 15.49335532  3999
STARLINK-35712          
1 66215U 25244K   25320.50002315  .00084330  00000+0  15130-2 0  9994
2 66215  53.1600  39.9211 0001000  46.2675 172.7519 15.49215261  3992
